sat00978
1 00978U 65004A   20046.88833536 -.00000101  00000-0 -10710-3 0  9991
2 00978  96.3880 210.0340 1158694 355.5989   3.5549 12.10884275431617
